[
    {
        "OBJECT_NAME": "ONEWEB-0294",
        "OBJECT_ID": "2021-075J",
        "EPOCH": "2025-12-06T19:56:02.995008",
        "MEAN_MOTION": 13.12443402,
        "ECCENTRICITY": 0.00014949,
        "INCLINATION": 87.8946,
        "RA_OF_ASC_NODE": 28.8673,
        "ARG_OF_PERICENTER": 82.3291,
        "MEAN_ANOMALY": 277.8007,
        "EPHEMERIS_TYPE": 0,
        "CLASSIFICATION_TYPE": "U",
        "NORAD_CAT_ID": 49083,
        "ELEMENT_SET_NO": 999,
        "REV_AT_EPOCH": 20934,
        "BSTAR": 0.0012894088,
        "MEAN_MOTION_DOT": 4.77e-06,
        "MEAN_MOTION_DDOT": 0
    },
    {
        "OBJECT_NAME": "ONEWEB-0295",
        "OBJECT_ID": "2021-075K",
        "EPOCH": "2025-12-06T22:01:00.103584",
        "MEAN_MOTION": 13.1764788,
        "ECCENTRICITY": 0.00014074,
        "INCLINATION": 87.9114,
        "RA_OF_ASC_NODE": 44.1077,
        "ARG_OF_PERICENTER": 105.683,
        "MEAN_ANOMALY": 254.4457,
        "EPHEMERIS_TYPE": 0,
        "CLASSIFICATION_TYPE": "U",
        "NORAD_CAT_ID": 49084,
        "ELEMENT_SET_NO": 999,
        "REV_AT_EPOCH": 20827,
        "BSTAR": 0.00044477902,
        "MEAN_MOTION_DOT": 1.86e-06,
        "MEAN_MOTION_DDOT": 0
    },
    {
        "OBJECT_NAME": "ONEWEB-0296",
        "OBJECT_ID": "2021-075L",
        "EPOCH": "2025-12-06T21:17:47.992992",
        "MEAN_MOTION": 13.1244551,
        "ECCENTRICITY": 0.00012474,
        "INCLINATION": 87.8941,
        "RA_OF_ASC_NODE": 28.8607,
        "ARG_OF_PERICENTER": 96.6269,
        "MEAN_ANOMALY": 263.5002,
        "EPHEMERIS_TYPE": 0,
        "CLASSIFICATION_TYPE": "U",
        "NORAD_CAT_ID": 49085,
        "ELEMENT_SET_NO": 999,
        "REV_AT_EPOCH": 20935,
        "BSTAR": 0.00090772296,
        "MEAN_MOTION_DOT": 3.39e-06,
        "MEAN_MOTION_DDOT": 0
    },
    {
        "OBJECT_NAME": "ONEWEB-0297",
        "OBJECT_ID": "2021-075M",
        "EPOCH": "2025-12-06T16:32:50.889696",
        "MEAN_MOTION": 13.12441464,
        "ECCENTRICITY": 0.00017079,
        "INCLINATION": 87.8935,
        "RA_OF_ASC_NODE": 28.9323,
        "ARG_OF_PERICENTER": 100.1362,
        "MEAN_ANOMALY": 259.9959,
        "EPHEMERIS_TYPE": 0,
        "CLASSIFICATION_TYPE": "U",
        "NORAD_CAT_ID": 49086,
        "ELEMENT_SET_NO": 999,
        "REV_AT_EPOCH": 20993,
        "BSTAR": -0.0002908073,
        "MEAN_MOTION_DOT": -9.2e-07,
        "MEAN_MOTION_DDOT": 0
    },
    {
        "OBJECT_NAME": "ONEWEB-0298",
        "OBJECT_ID": "2021-075N",
        "EPOCH": "2025-12-06T22:07:16.723776",
        "MEAN_MOTION": 13.17649014,
        "ECCENTRICITY": 0.00018116,
        "INCLINATION": 87.9115,
        "RA_OF_ASC_NODE": 44.1038,
        "ARG_OF_PERICENTER": 101.4985,
        "MEAN_ANOMALY": 258.635,
        "EPHEMERIS_TYPE": 0,
        "CLASSIFICATION_TYPE": "U",
        "NORAD_CAT_ID": 49087,
        "ELEMENT_SET_NO": 999,
        "REV_AT_EPOCH": 20830,
        "BSTAR": 2.344102e-05,
        "MEAN_MOTION_DOT": 2.2e-07,
        "MEAN_MOTION_DDOT": 0
    },
    {
        "OBJECT_NAME": "ONEWEB-0299",
        "OBJECT_ID": "2021-075P",
        "EPOCH": "2025-12-06T16:41:28.075776",
        "MEAN_MOTION": 13.17649123,
        "ECCENTRICITY": 0.00016161,
        "INCLINATION": 87.9126,
        "RA_OF_ASC_NODE": 44.11,
        "ARG_OF_PERICENTER": 106.1411,
        "MEAN_ANOMALY": 253.9899,
        "EPHEMERIS_TYPE": 0,
        "CLASSIFICATION_TYPE": "U",
        "NORAD_CAT_ID": 49088,
        "ELEMENT_SET_NO": 999,
        "REV_AT_EPOCH": 20825,
        "BSTAR": 3.6369696e-05,
        "MEAN_MOTION_DOT": 2.7e-07,
        "MEAN_MOTION_DDOT": 0
    },
    {
        "OBJECT_NAME": "ONEWEB-0300",
        "OBJECT_ID": "2021-075Q",
        "EPOCH": "2025-12-06T20:00:43.669728",
        "MEAN_MOTION": 13.12442977,
        "ECCENTRICITY": 0.00020235,
        "INCLINATION": 87.8947,
        "RA_OF_ASC_NODE": 28.863,
        "ARG_OF_PERICENTER": 103.1098,
        "MEAN_ANOMALY": 257.0257,
        "EPHEMERIS_TYPE": 0,
        "CLASSIFICATION_TYPE": "U",
        "NORAD_CAT_ID": 49089,
        "ELEMENT_SET_NO": 999,
        "REV_AT_EPOCH": 20997,
        "BSTAR": 0.00084626739,
        "MEAN_MOTION_DOT": 3.17e-06,
        "MEAN_MOTION_DDOT": 0
    },
    {
        "OBJECT_NAME": "ONEWEB-0301",
        "OBJECT_ID": "2021-075R",
        "EPOCH": "2025-12-06T21:27:09.501408",
        "MEAN_MOTION": 13.12443186,
        "ECCENTRICITY": 0.00021558,
        "INCLINATION": 87.8944,
        "RA_OF_ASC_NODE": 28.8531,
        "ARG_OF_PERICENTER": 103.4364,
        "MEAN_ANOMALY": 256.7005,
        "EPHEMERIS_TYPE": 0,
        "CLASSIFICATION_TYPE": "U",
        "NORAD_CAT_ID": 49090,
        "ELEMENT_SET_NO": 999,
        "REV_AT_EPOCH": 20934,
        "BSTAR": 0.0010246609,
        "MEAN_MOTION_DOT": 3.81e-06,
        "MEAN_MOTION_DDOT": 0
    },
    {
        "OBJECT_NAME": "ONEWEB-0302",
        "OBJECT_ID": "2021-075S",
        "EPOCH": "2025-12-06T21:08:27.348576",
        "MEAN_MOTION": 13.12444612,
        "ECCENTRICITY": 0.00014828,
        "INCLINATION": 87.8946,
        "RA_OF_ASC_NODE": 28.8636,
        "ARG_OF_PERICENTER": 90.1187,
        "MEAN_ANOMALY": 270.0111,
        "EPHEMERIS_TYPE": 0,
        "CLASSIFICATION_TYPE": "U",
        "NORAD_CAT_ID": 49091,
        "ELEMENT_SET_NO": 999,
        "REV_AT_EPOCH": 20932,
        "BSTAR": 0.0003073515,
        "MEAN_MOTION_DOT": 1.23e-06,
        "MEAN_MOTION_DDOT": 0
    },
    {
        "OBJECT_NAME": "ONEWEB-0304",
        "OBJECT_ID": "2021-075T",
        "EPOCH": "2025-12-06T21:33:04.163904",
        "MEAN_MOTION": 13.17649209,
        "ECCENTRICITY": 0.00016077,
        "INCLINATION": 87.9122,
        "RA_OF_ASC_NODE": 44.1003,
        "ARG_OF_PERICENTER": 102.5905,
        "MEAN_ANOMALY": 257.5406,
        "EPHEMERIS_TYPE": 0,
        "CLASSIFICATION_TYPE": "U",
        "NORAD_CAT_ID": 49092,
        "ELEMENT_SET_NO": 999,
        "REV_AT_EPOCH": 20825,
        "BSTAR": 0.00025696717,
        "MEAN_MOTION_DOT": 1.13e-06,
        "MEAN_MOTION_DDOT": 0
    },
    {
        "OBJECT_NAME": "ONEWEB-0305",
        "OBJECT_ID": "2021-075U",
        "EPOCH": "2025-12-06T21:23:19.792320",
        "MEAN_MOTION": 13.1765051,
        "ECCENTRICITY": 0.00014276,
        "INCLINATION": 87.9125,
        "RA_OF_ASC_NODE": 44.0788,
        "ARG_OF_PERICENTER": 112.6983,
        "MEAN_ANOMALY": 247.43,
        "EPHEMERIS_TYPE": 0,
        "CLASSIFICATION_TYPE": "U",
        "NORAD_CAT_ID": 49093,
        "ELEMENT_SET_NO": 999,
        "REV_AT_EPOCH": 20828,
        "BSTAR": 0.00032923678,
        "MEAN_MOTION_DOT": 1.41e-06,
        "MEAN_MOTION_DDOT": 0
    },
    {
        "OBJECT_NAME": "ONEWEB-0308",
        "OBJECT_ID": "2021-075V",
        "EPOCH": "2025-12-06T20:59:06.240192",
        "MEAN_MOTION": 13.12444317,
        "ECCENTRICITY": 0.00017316,
        "INCLINATION": 87.8945,
        "RA_OF_ASC_NODE": 28.8579,
        "ARG_OF_PERICENTER": 98.0589,
        "MEAN_ANOMALY": 262.0736,
        "EPHEMERIS_TYPE": 0,
        "CLASSIFICATION_TYPE": "U",
        "NORAD_CAT_ID": 49094,
        "ELEMENT_SET_NO": 999,
        "REV_AT_EPOCH": 20933,
        "BSTAR": -0.00017341206,
        "MEAN_MOTION_DOT": -5e-07,
        "MEAN_MOTION_DDOT": 0
    },
    {
        "OBJECT_NAME": "ONEWEB-0309",
        "OBJECT_ID": "2021-075W",
        "EPOCH": "2025-12-06T21:28:11.987616",
        "MEAN_MOTION": 13.17650284,
        "ECCENTRICITY": 0.00014744,
        "INCLINATION": 87.9126,
        "RA_OF_ASC_NODE": 44.0939,
        "ARG_OF_PERICENTER": 88.2793,
        "MEAN_ANOMALY": 271.8507,
        "EPHEMERIS_TYPE": 0,
        "CLASSIFICATION_TYPE": "U",
        "NORAD_CAT_ID": 49095,
        "ELEMENT_SET_NO": 999,
        "REV_AT_EPOCH": 20825,
        "BSTAR": 0.00028991891,
        "MEAN_MOTION_DOT": 1.25e-06,
        "MEAN_MOTION_DDOT": 0
    }
]