[{"norad_id":"49083","company":"ONEWEB","tle_line2":"2 49083  87.8946  28.8673 0001494  82.3291 277.8007 13.12443402209348","launch_date":"2021-08-21","type":"LEO","tle_line1":"1 49083U 21075J   25340.83059022  .00000477  00000+0  12894-2 0  9995","satellite_name":"ONEWEB-0294"},{"norad_id":"49084","company":"ONEWEB","tle_line2":"2 49084  87.9114  44.1077 0001407 105.6830 254.4457 13.17647880208270","launch_date":"2021-08-21","type":"LEO","tle_line1":"1 49084U 21075K   25340.91736231  .00000186  00000+0  44478-3 0  9990","satellite_name":"ONEWEB-0295"},{"norad_id":"49085","company":"ONEWEB","tle_line2":"2 49085  87.8941  28.8607 0001247  96.6269 263.5002 13.12445510209351","launch_date":"2021-08-21","type":"LEO","tle_line1":"1 49085U 21075L   25340.88736103  .00000339  00000+0  90772-3 0  9993","satellite_name":"ONEWEB-0296"},{"norad_id":"49086","company":"ONEWEB","tle_line2":"2 49086  87.8935  28.9323 0001707 100.1362 259.9959 13.12441464209935","launch_date":"2021-08-21","type":"LEO","tle_line1":"1 49086U 21075M   25340.68947789 -.00000092  00000+0 -29081-3 0  9999","satellite_name":"ONEWEB-0297"},{"norad_id":"49087","company":"ONEWEB","tle_line2":"2 49087  87.9115  44.1038 0001811 101.4985 258.6350 13.17649014208308","launch_date":"2021-08-21","type":"LEO","tle_line1":"1 49087U 21075N   25340.92172134  .00000022  00000+0  23441-4 0  9997","satellite_name":"ONEWEB-0298"},{"norad_id":"49088","company":"ONEWEB","tle_line2":"2 49088  87.9126  44.1100 0001616 106.1411 253.9899 13.17649123208251","launch_date":"2021-08-21","type":"LEO","tle_line1":"1 49088U 21075P   25340.69546384  .00000027  00000+0  36370-4 0  9994","satellite_name":"ONEWEB-0299"},{"norad_id":"49089","company":"ONEWEB","tle_line2":"2 49089  87.8947  28.8630 0002023 103.1098 257.0257 13.12442977209976","launch_date":"2021-08-21","type":"LEO","tle_line1":"1 49089U 21075Q   25340.83383877  .00000317  00000+0  84627-3 0  9996","satellite_name":"ONEWEB-0300"},{"norad_id":"49090","company":"ONEWEB","tle_line2":"2 49090  87.8944  28.8531 0002155 103.4364 256.7005 13.12443186209341","launch_date":"2021-08-21","type":"LEO","tle_line1":"1 49090U 21075R   25340.89385997  .00000381  00000+0  10247-2 0  9996","satellite_name":"ONEWEB-0301"},{"norad_id":"49091","company":"ONEWEB","tle_line2":"2 49091  87.8946  28.8636 0001482  90.1187 270.0111 13.12444612209327","launch_date":"2021-08-21","type":"LEO","tle_line1":"1 49091U 21075S   25340.88087209  .00000123  00000+0  30735-3 0  9990","satellite_name":"ONEWEB-0302"},{"norad_id":"49092","company":"ONEWEB","tle_line2":"2 49092  87.9122  44.1003 0001607 102.5905 257.5406 13.17649209208251","launch_date":"2021-08-21","type":"LEO","tle_line1":"1 49092U 21075T   25340.89796486  .00000113  00000+0  25697-3 0  9996","satellite_name":"ONEWEB-0304"},{"norad_id":"49093","company":"ONEWEB","tle_line2":"2 49093  87.9125  44.0788 0001427 112.6983 247.4300 13.17650510208283","launch_date":"2021-08-21","type":"LEO","tle_line1":"1 49093U 21075U   25340.89120130  .00000141  00000+0  32924-3 0  9996","satellite_name":"ONEWEB-0305"},{"norad_id":"49094","company":"ONEWEB","tle_line2":"2 49094  87.8945  28.8579 0001731  98.0589 262.0736 13.12444317209332","launch_date":"2021-08-21","type":"LEO","tle_line1":"1 49094U 21075V   25340.87437778 -.00000050  00000+0 -17341-3 0  9991","satellite_name":"ONEWEB-0308"},{"norad_id":"49095","company":"ONEWEB","tle_line2":"2 49095  87.9126  44.0939 0001474  88.2793 271.8507 13.17650284208258","launch_date":"2021-08-21","type":"LEO","tle_line1":"1 49095U 21075W   25340.89458319  .00000125  00000+0  28992-3 0  9993","satellite_name":"ONEWEB-0309"}]